Nombre,Departamento,Ciudad,Direccion,HoraDeApertura,HoraDeCierre,Facebook,Instagram,Web,Descripcion,Latitud,Longitud,TipoDeLugar,RestriccionDeEdad,EnfoqueDePersonas,Megusta,Tipo,Calificaciones,TvCable,Piscina,Wifi,AireAcondicionado,BanoPrivado,Casino,Bar,Restaurante,Desayuno,Mascota,Telefono
Cala di Volpe Boutique Hotel,Montevideo,Montevideo,Rambla Gandhi  Esquina Parva Domus,00:00:00,00:00:00,https://www.facebook.com/crystalpalacehotelmvd/,,https://www.hotelcaladivolpe.com.uy/,Este hotel de lujo se encuentra en una zona de playa de Montevideo y ofrece habitaciones con vistas al mar conexion WiFi gratuita y un gimnasio con vistas panoramicas sauna una piscina de hidromasaje y sesiones de masaje bajo reserva.,3492617,5615772,Espacio cerrado,Todas,Familia,120,Hotel,4,1,1,1,1,1,0,1,1,1,0,27102000
Crystal Palace Hotel,Montevideo,Montevideo,Av. 18 De Julio 1210,00:00:00,00:00:00,,,https://www.crystalpalacehotel.com.uy/,El Crystal Palace Hotel se encuentra en la avenida 18 de Julio en Montevideo y ofrece habitaciones con aire acondicionado y WiFi gratuita. Tambien alberga un restaurante de cocina regional. Todos los dias se sirve un desayuno.,3490558,5618991,Espacio cerrado,Todas,Familia,100,Hotel,4,1,1,1,1,1,1,1,1,1,0,29004645
Vivaldi Hotel Loft Punta Carretas,Montevideo,Montevideo,Blanca del Tabaré 2903,00:00:00,00:00:00,https://www.facebook.com/VivaldiHotelLoft/?locale=es_LA,https://www.instagram.com/vivaldihotel/?hl=es,https://www.vivaldihotel.uy/,El Vivaldi Hotel Loft Punta Carretas se encuentra en Montevideo y ofrece habitaciones elegantes con comodidades modernas WiFi gratuita y decoracion contamporanea. Alberga una piscina al aire libre y un centro de fitness y sirve un desayuno cada manana.,3492016,5615664,Espacio cerrado,Todas,Familia,100,Hotel,4,1,1,1,1,1,0,1,1,1,0,27140000
Mercure Montevideo Punta Carretas,Montevideo,Montevideo,Rambla Gandhi 371,00:00:00,00:00:00,,,https://mercuremontevideopuntacarretas.comhotel.com/es/,El Mercure Montevideo Punta Carretas presenta una decoracion elegante y vistas a la bahia de Montevideo. Dispone de centro de fitness y zona de estar elegante. La conexion WiFi es gratuita y el restaurante sirve deliciosos platos gourmet para cenar.,3492492,5615553,Espacio cerrado,Todas,Familia,120,Hotel,4,1,1,1,1,1,1,1,1,1,0,27161114
Dazzler by Wyndham Montevideo,Montevideo,Montevideo,21 de Setiembre 2752 Punta Carretas,00:00:00,00:00:00,,,https://dazzlermontevideo.com/,El Dazzler by Wyndham Montevideo se encuentra en Montevideo y ofrece piscina al aire libre centro de fitness spa WiFi gratuita y desayuno buffet. El establecimiento esta situado en el barrio de Punta Carretas rodeado de una zona comercial con restaurantes y lugares de interés cultural. El establecimiento se halla a 500 metros del paseo marítimo y a 3 km del centro historico.,3491765,5615736,Espacio cerrado,Todas,Familia,250,Hotel,4,1,1,1,1,1,1,1,1,1,0,27160000
Hotel Palacio,Montevideo,Montevideo,Bartolomé Mitre 1364,00:00:00,00:00:00,https://www.facebook.com/hotelpalaciomontevideo/?locale=es_LA,,https://hotelpalacio.com.uy/,El Hotel Palacio se encuentra en el centro de Montevideo a solo 200 metros del teatro Solís y ofrece habitaciones con conexion WiFi gratuita y TV por cable. El mercado del puerto esta situado a 1 km en el casco antiguo.,3490614,5620209,Espacio cerrado,Todas,Familia,80,Hotel,4,1,1,0,1,0,0,0,0,1,0,29163612
ibis Montevideo Rambla,Montevideo,Montevideo,Calle La Cumparsita 1473,00:00:00,00:00:00,https://esla.facebook.com/IbisMvdeo/,,https://ibismontevideorambla.comhotel.com/es/,El ibis Montevideo Rambla situado a 1 km de Ramírez ofrece alojamiento de 3 estrellas en Montevideo y cuenta con bar. Este hotel de 3 estrellas cuenta con restaurante y habitaciones con aire acondicionado WiFi gratuita y bano privado. Hay aparcamiento privado en el establecimiento.,3491388,5618243,Espacio cerrado,Todas,Familia,75,Hotel,4,0,0,1,0,0,0,1,1,1,0,24137000
Radisson Montevideo Victoria Plaza,Montevideo,Montevideo,Pza. Independencia 759,00:00:00,00:00:00,https://esla.facebook.com/RadissonMontevideo/,https://www.instagram.com/radissonvictoriaplaza/?hl=es,https://www.radissonvictoriaplaza.com.uy/home,El Radisson Montevideo Victoria Plaza esta ubicado en pleno centro de la ciudad frente a la plaza Independencia y ofrece vistas impresionantes a la bahia del puerto. Este hotel cuenta con gimnasio piscina cubierta spa salon de masajes sauna zona para correr casino y conserje.,3490568,5619950,Espacio cerrado,Todas,Familia,300,Hotel,4,1,1,1,1,1,1,1,1,1,0,29020111
Days Inn by Wyndham Montevideo,Montevideo,Montevideo,Acevedo Diaz 1821,00:00:00,00:00:00,,,https://www.daysinn.com.uy/es,Este hotel goza de una ubicación idónea en el centro de Montevideo a solo unos minutos a pie del Obelisco y del centro comercial Tres Cruces Shopping. Se facilita aparcamiento privado por un suplemento. tambien se proporciona WiFi gratuita.,3489333,5616751,Espacio cerrado,Todas,Familia,150,Hotel,3,1,0,1,1,1,0,0,0,1,0,24004840
NH Montevideo Columbia,Montevideo,Montevideo,Rambla Gran Bretana 473,00:00:00,00:00:00,,,https://www.nhhotels.com/hotel/nhmontevideocolumbia, El NH Montevideo Columbia ofrece habitaciones elegantes con WiFi gratuita en Ciudad Vieja un barrio historico de Montevideo. El establecimiento ofrece vistas panorámicas al rio de la Plata y esta a poca distancia a pie de varios lugares de interés turistico.,3490951,5620455,Espacio cerrado,Todas,Familia,160,Hotel,5,1,1,1,1,1,1,1,1,1,0,29160001
Regency Way Montevideo Hotel,Montevideo,Montevideo,Av. Rivera 3377,00:00:00,00:00:00,,,https://www.regencyway.com.uy/,El Regency Way Montevideo Hotel alberga piscina exterior solárium y centro de fitness en Montevideo. El hotel ofrece conexion WiFi gratuita y se encuentra a 5 calles del World Trade Center de Montevideo.,3490951,5620455,Espacio cerrado,Todas,Familia,200,Hotel,5,1,1,1,1,1,1,1,1,1,0,26287777
Mercosur Universitas,Montevideo,Montevideo,8 de Octubre 2481,00:00:00,00:00:00,,,https://mercosuruniversitas.com/es/,El Mercosur Universitas esta situado en el centro de Montevideo y ofrece apartamentos independientes modernos y luminosos con WiFi gratuita. El establecimiento cuenta con centro de fitness y terraza solárium.,3489279,5616349,Espacio cerrado,Todas,Familia,100,Hotel,4,1,1,1,1,0,0,0,1,0,0,24875353
Hotel Bahamas,Montevideo,Montevideo,Avenida al Parque al 900 Esq. Arizona,00:00:00,00:00:00,,,https://www.hotelbahamas.com.uy/es/contacto.html,El Bahamas goza de una ubicación excelente a 2 calles del paseo marítimo de la Rambla Costanera de Canelones y dispone de habitaciones luminosas con comodidades modernas. Hay aparcamiento y WiFi gratuita en todas las instalaciones del hotel.,3487164,5602257,Espacio cerrado,Todas,Familia,120,Hotel,4,1,1,1,1,1,0,0,0,1,0,26012089
Hotel America,Montevideo,Montevideo,Rio Negro 1330 Bis,00:00:00,00:00:00,,https://www.instagram.com/hotel_america/?hl=es,http://www.hotelamerica.com.uy/inicio/es,El Hotel America situado a solo 5 calles del pintoresco centro historico de Montevideo la Ciudad Vieja ofrece habitaciones con WiFi gratis. La playa de Pocitos queda a 15 minutos en coche. Además hay aparcamiento privado.El Hotel America dispone de habitaciones con aire acondicionado TV LED minibar y bano privado con ducha y articulos de aseo.,3490625,5619346,Espacio cerrado,Todas,Familia,150,Hotel,3,1,0,0,0,0,1,1,1,1,0,98011468
Esplendor by Wyndham Montevideo Cervantes,Montevideo,Montevideo,Soriano 868,00:00:00,00:00:00,,https://www.instagram.com/esplendorcervantes/?hl=es,https://esplendorcervantes.com/,Este hotel ofrece piscina cubierta y terraza en la azotea con vistas a Montevideo y se encuentra a solo 20 minutos a pie de la playa de Pocitos. Se pueden reservar masajes.,3490817,5619754,Espacio cerrado,Todas,Familia,75,Hotel,2,0,0,0,1,0,0,1,0,1,0,29001900
Holiday Inn Montevideo an IHG Hotel,Montevideo,Montevideo,Colonia 823,00:00:00,00:00:00,https://esla.facebook.com/HolidayinnMontevideo/,https://www.instagram.com/holidayinnmontevideo/?hl=es,https://holidayinnmontevideoanihghotel.comhotel.com/es/,El Holiday Inn cuenta con una piscina cubierta y un gimnasio. Ofrece habitaciones elegantes con TV por cable y sirve desayunos. Asimismo esta a solo 500 metros del ayuntamiento de Montevideo. La terminal de autobuses de Tres Cruces esta a 2 km.,3490528,5619893,Espacio cerrado,Todas,Familia,200,Hotel,3,1,1,1,1,1,1,1,1,1,0,29020001
Punta Trouville Hotel,Montevideo,Montevideo,Francisco Vidal 726 Pocitos,00:00:00,00:00:00,https://www.facebook.com/Hotelpuntatrouville/,,https://www.puntatrouville.com.uy/,El Punta Trouville Hotel esta ubicado en el barrio de Punta Carretas a poca distancia a pie de la playa de los Pocitos de la plaza Gomensoro y de varios restaurantes y tiendas. Se encuentra a poca distancia a pie del parque Rodó el Museo de Bellas Artes el parque Villa Biarritz y el centro comercial Punta Carretas Shopping. Este hotel cuenta con WiFi gratuita.,3491895,5614973,Espacio cerrado,Todas,Familia,206,Hotel,3,1,1,1,1,1,1,1,1,1,0,27120903
Crystal Tower,Montevideo,Montevideo,Aquiles Lanza 1323,00:00:00,00:00:00,https://www.facebook.com/crystaltowerhotelmvd/?locale=es_LA,,https://www.crystaltowerhotel.com.uy/,El Crystal Tower se encuentra en Montevideo y cuenta con restaurante centro de fitness y habitaciones cómodas con WiFi gratuita. La avenida 18 de Julio esta a 20 metros.,3490609,5618806,Espacio cerrado,Todas,Familia,400,Hotel,3,1,1,1,1,1,0,0,0,1,0,29048535
Smart Hotel Montevideo,Montevideo,Montevideo,Andes 1240 esquina Soriano,00:00:00,00:00:00,https://esla.facebook.com/smarthotelmontevideo/,,https://smarthotelmontevideo.com/es/,El Smart Hotel Montevideo se encuentra en el centro de Montevideo y ofrece habitaciones sofisticadas decoradas con elegancia. El establecimiento cuenta con restaurante y conexion WiFi gratuita.,3490823,5619783,Espacio cerrado,Todas,Familia,325,Hotel,4,1,1,1,1,1,1,1,1,1,0,29033222
BIT Design Hotel,Montevideo,Montevideo,Ramon Fernandez 265 Punta Carretas,00:00:00,00:00:00,https://esla.facebook.com/bitdesignhotel/,https://www.instagram.com/bitdesignhotel/?hl=es,https://bitdesignhotel.com/,El BIT Design Hotel se encuentra en el distrito Punta Carretas de Montevideo y ofrece vistas panorámicas a la ciudad elegantes habitaciones sofisticadas y conexion WiFi gratuita.,3492451,5616101,Espacio cerrado,Todas,Familia,220,Hotel,3,1,1,1,1,1,1,1,1,1,0,27123455
Hampton By Hilton Montevideo Carrasco,Montevideo,Montevideo,Avenida de la Americas 4239,00:00:00,00:00:00,https://www.facebook.com/HamptonbyHiltonMVD/,,https://www.hiltonhotels.com/es_XM/uruguay/hamptonbyhiltonmontevideocarrasco/,El Hampton By Hilton Montevideo Carrasco esta ubicado en Montevideo a 2 km del aeropuerto internacional de Carrasco. El establecimiento ofrece recepción 24 horas WiFi en todas las zonas piscina al aire libre centro de fitness y aparcamiento privado gratuito. Se sirve el desayuno.,3485071,5602467,Espacio cerrado,Todas,Familia,354,Hotel,5,1,1,1,1,1,1,1,1,1,0,26033333
Palladium Business Hotel,Montevideo,Montevideo,Tomas de Tezanos 1146,00:00:00,00:00:00,,,https://www.palladiumhotel.com.uy/,Este hotel de 4 estrellas esta situado en Montevideo cerca de la nueva Zona Franca. Ofrece una terraza en la azotea con vistas a la ciudad y conexion WiFi gratuita. El aeropuerto internacional de Carrasco esta a 15 minutos en coche.,3490393,5613277,Espacio cerrado,Todas,Familia,220,Hotel,4,1,1,1,1,1,1,1,1,1,0,26288484
Apartamento en el centro de Pocitos,Montevideo,Montevideo,Bulevar Espana 2806,00:00:00,00:00:00,,,,El Apartamento en el centro de Pocitos ofrece vistas al jardín y alojamiento con balcón y cafetera a menos de 1 km de la playa de Pocitos. El apartamento proporciona WiFi gratuita y se encuentra a 1.9 km de Ramírez y a 3.9 km de la estación terminal de Tres Cruces.,3491440,5615243,Espacio cerrado,Todas,Familia,440,Hotel,2,0,0,0,0,0,0,0,0,0,0,99999999
Regency Golf  Hotel Urbano,Montevideo,Montevideo,Solano Garcia 2473,00:00:00,00:00:00,,,https://www.regencygolf.com.uy/,El Regency Golf  Hotel Urbano esta situado frente al centro comercial Punta Carretas y ofrece habitaciones independientes con TV de plasma y WiFi gratuita. El paseo a lo largo del rio se encuentra a 500 metros. Se proporciona restaurante gimnasio y aparcamiento gratuito sujeto a disponibilidad.,3492218,5615984,Espacio cerrado,Todas,Familia,450,Hotel,5,1,1,1,1,1,1,1,1,1,0,27104444
Hotel California,Montevideo,Montevideo,San Jose 1237,00:00:00,00:00:00,https://www.facebook.com/hotelcaliforniauy/,,https://www.hotelcalifornia.com.uy/,El Hotel California esta situado en pleno centro de Montevideo y ofrece habitaciones con conexion WiFi gratuita. Se encuentra a 50 metros de la Avenida 18 de julio y de la plaza Cagancha. Hay aparcamiento gratuito sujeto a disponibilidad.,3490644,5618936,Espacio cerrado,Todas,Familia,120,Hotel,3,1,1,1,1,1,0,0,0,1,0,29020408
Punta Espinillo Camping Privado,Montevideo,Montevideo,Cno. del Tropero 12700 al final,00:00:00,00:00:00,https://www.facebook.com/ParadorYCampingPuntaEspinillo/?locale=es_LA,,,Camping privado en Punta Espinillo cierra luego de semana de turismo.,3483174,5641518,Al aire libre,Todas,Familia,100,Camping,0,0,0,0,0,0,0,0,0,0,0,94407137
Camino de SAN Juan,Montevdeo,Montevideo,Arenal Grande 1389,00:00:00,00:00:00,,,,Camping privado en el Departamento de Montevideo,3490242,5617318,Al aire libre,Todas,Familia,20,Camping,0,0,0,0,0,0,0,0,0,0,0,99123111
Septimo Cielo,Montevideo,Montevideo,Robinson 3372,00:00:00,00:00:00,,,https://www.septimocielo.com.uy/,Septimo Cielo es el mas moderno y discreto lugar para disfrutar tu intimidad.,3485481,5615117,Espacio cerrado,Mayores,Pareja,521,Motel,0,1,1,1,1,1,1,0,0,0,0,22116122
Hotel Bahamas,Montevideo,Montevideo,Avenida Al Parque 900,00:00:00,00:00:00,https://www.facebook.com/bahamahotel/,https://www.instagram.com/hotel_bahamas/?hl=es,https://www.hotelbahamas.com.uy/es/,Este hotel tranquilo está a 7 minutos a pie de la playa más cercana a 10 minutos a pie del parque Roosevelt y a 6 km del aeropuerto internacional Carrasco.,3487035,5602311,Espacio cerrado,Mayores,Pareja,452,Motel,0,1,1,1,1,1,1,0,0,0,0,26012089
Sur Hotel,Montevideo,Montevideo,Maldonado 1098,00:00:00,00:00:00,https://www.facebook.com/SurHotel.Montevideo/,,https://www.surhotel.com/,Este hotel tranquilo se encuentra a 12 minutos a pie del palacio Salvo a 14 minutos a pie de la plaza Independencia y a 3 km de los restaurantes del animado Mercado del Puerto.,3490988,5619205,Espacio cerrado,Mayores,Pareja,425,Motel,0,1,1,1,1,1,1,0,0,0,0,29082025
Hotel Antares,Montevideo,Montevideo,Dr Lorenzo Carnelli 1325,00:00:00,00:00:00,,,https://hotelantares.webnode.com.uy/,El Hotel Antares ofrece diversos servicios que se adecúan a las necesidades de cada uno de nuestros clientes.,3490644,5618132,Espacio cerrado,Mayores,Pareja,223,Motel,0,1,1,1,1,1,1,0,0,0,0,24196963
Hotel Monyui,Montevideo,Montevideo,Francisco Rodrigo 2990,00:00:00,00:00:00,https://www.facebook.com/HotelMonyui/?locale=es_LA,https://www.instagram.com/monyuihotelalta/?hl=es,https://monyui.negocio.site/?utm_source=gmb&utm_medium=referral,Un clásico desde hace mas de ocho décadas Hotel Monyuí fue siempre reconocido por su ambiente propicio para la intimidad por la calidez de sus instalaciones y por la calidad de sus servicios. Enclavado en una zona céntrica y a la vez muy discreta ofrece condiciones de acceso y seguridad especiales. Ubicado en una parte de la ciudad en la que se levantan centros comerciales hospitales terminales de autobuses el recorrido por las avenidas y las calles de cercanía se hace con extrema facilidad y discreción.,3487303,5616397,Espacio cerrado,Mayores,Pareja,250,Motel,0,1,1,1,1,1,1,0,0,0,0,24816431
Hotel Oriente,Montevideo,Montevideo,Nueva York 1175 Esq. Gral. Rondeau 1808,00:00:00,00:00:00,https://www.facebook.com/people/Oriente-Alta-Rotatividad/100057808323624/,,,El Hotel Oriente está ubicado en pleno centro de la ciudad es uno de los más elegidos tanto por sus habitantes como por las personas que llegan de todas partes del mundo.,3489545,5619265,Espacio cerrado,Mayores,Pareja,320,Motel,0,1,1,1,1,1,1,0,0,0,0,29240578
Viña del Mar,Montevideo,Montevideo,Gobernador Viana 2879,00:00:00,00:00:00,https://www.facebook.com/hotelvinadelmaruy/?locale=es_LA,,https://www.hotelvinadelmar.com/,Ofrecemos discreción y confort para nuestros huéspedes,3486951,5614580,Espacio cerrado,Mayores,Pareja,220,Motel,0,1,1,1,1,1,1,0,0,0,0,25081807
Posada del Mar,Montevideo,Montevideo,Tacuarí 1020,00:00:00,00:00:00,,,https://posadadelmar.com.uy/,En la rambla de Carrasco frente al mar se ubica el único hotel boutique de alta rotatividad que existe en Uruguay,3486695,5602860,Espacio cerrado,Mayores,Pareja,200,Motel,0,1,1,1,1,1,1,0,0,0,0,26012539
Motel Dunas,Montevideo,Montevideo,Av del Parque s/n,00:00:00,00:00:00,https://www.facebook.com/moteldunasuy/,https://www.instagram.com/moteldunasuy/?hl=esx,https://www.moteldunas.uy/,Cuidamos cada detalle para que su estadía sea única.Le ofrecemos habitaciones modernas y con estilo en un ambiente cálido.,34851688,5602105,Espacio cerrado,Mayores,Pareja,220,Motel,0,1,1,1,1,1,1,0,0,0,0,26012209
El Lido,Montevideo,Montevideo,Av. Burgues 3162,00:00:00,00:00:00,https://www.facebook.com/motelnuevolido/,,,Motel Nuevo Lido es un hotel de alta rotatividad diseñado para tí... con tarifas accesibles,3486756,5618568,Espacio cerrado,Mayores,Pareja,521,Motel,0,1,1,1,1,1,1,0,0,0,0,22001416
Che Lagarto,Montevideo,Montevideo,Colonia 2063,00:00:00,00:00:00,,,https://www.chelagarto.com/es/component/chelagarto/hostels/7-hostel-montevideo.html,¡Conocer Montevideo es una experiencia maravillosa y tu hospedaje tiene que ser igual! Una ubicación céntrica como la de Che Lagarto es clave: a sólo 600 m de la Terminal de Ómnibus a 100 m de la principal Av. 18 de Julio cerca de Pocitos y de todo lo que quieres visitar.,3489493,5617243,Espacio cerrado,Mayores,Grupo,555,Hostel,1,1,1,1,0,0,0,0,1,0,0,24096632
Hostel Avokanto,Montevideo,Montevideo,San Salvador 2077,00:00:00,00:00:00,,,http://avokanto-hostel.montevideo-hotels.com/es/,El Avokanto hostel se encuentra en Montevideo a 500 metros de Ramírez y ofrece alojamiento frente a la playa jardín salón compartido y terraza. El establecimiento cuenta con zona de barbacoa y está cerca de varios lugares de interés famosos a 1.1 km del teatro de Verano y a 9 km del palacio municipal Ofrece recepción 24 horas servicio de enlace con el aeropuerto cocina compartida y WiFi gratuita en todas las instalaciones.,3482429,5617228,Espacio cerrado,Mayores,Grupo,547,Hostel,1,1,1,1,0,0,0,0,1,0,0,99304892
Viajero Hostel,Montevideo,Montevideo,C. Soriano 1073,00:00:00,00:00:00,,,https://www.viajerohostels.com/es/destinos-uruguay/,Uruguay el país que nos vio nacer como cadena de hostales latinoamericana. Un destino único en Sudamérica lleno de encanto color y hospitalidad. Conoce la pintoresca Colonia la fiestera y aventurera Pedrera o la urbana y artística capital Montevideo.,3490281,5619264,Espacio cerrado,Mayores,Grupo,1230,Hostel,1,1,1,1,0,0,0,0,1,0,0,29082913
Montevideo Port Hostel,Montevideo,Montevideo,Bartolomé Mitre 1535,00:00:00,00:00:00,https://es-la.facebook.com/mvdporthostel/,https://www.instagram.com/mvdporthostel/?hl=es,https://montevideoporthostel.negocio.site/?utm_source=gmb&utm_medium=referral,Hermoso e inclusivo Hostel para hospedarse en la ciudad de Montevideo conocer la ciudad y hacer nuevos amigos.,3489654,5620506,Espacio cerrado,Mayores,Grupo,452,Hostel,1,1,1,1,0,0,0,0,1,0,0,99603812
Destino26 Hostel,Montevideo,Montevideo,26 de Marzo 1125,00:00:00,00:00:00,https://www.facebook.com/Destino26Hostel/?locale=es_LA,https://www.instagram.com/destino26hostel/?hl=es,https://hosteldestino26.com/,Somos expertos en compartir nos esforzamos para que tu estadía sea perfecta todas nuestras habitaciones incluyen ropa de cama y wifi. Te esperamos apra que conozcas la hermosa ciudad de Montevideo,3490603,5615084,Espacio cerrado,Mayores,Grupo,2254,Hostel,1,1,1,1,0,0,0,0,1,0,0,27076041
Circus Hostel,Montevideo,Montevideo,Treinta y Tres 1274,00:00:00,00:00:00,https://www.facebook.com/Circushostelmvd/?locale=es_LA,,http://hostelcircus.com/,Hostal con habitaciones privadas y dormitorios terraza en la azotea salón moderno y vista a la ciudad.,3490252,5620454,Espacio cerrado,Mayores,Grupo,555,Hostel,1,1,1,1,0,0,0,0,1,0,0,29158151
AhiVa Espacio Temporal,Montevideo,Montevideo,Magallanes 1544,00:00:00,00:00:00,,,https://ahivamontevideo.uy/?gclid=Cj0KCQiAutyfBhCMARIsAMgcRJQTFDv6B0drXfPofhpI5KZijSHFp_rD4mCPcRyjA3regjgo8fDMIMoaAuy4EALw_wcB,AHIVÁ Espacio Temporal es un alojamiento acogedor económico y muy funcional con 4 habitaciones privadas.,3489534,5618178,Espacio cerrado,Mayores,Grupo,254,Hostel,1,1,1,1,0,0,0,0,1,0,0,99023763
Hostel Avokanto,Montevideo,Montevideo,San Salvador 2077,00:00:00,00:00:00,,,http://avokanto-hostel.montevideo-hotels.com/es/,Ofreciendo una terraza y un jardín Avokanto Hostel Montevideo es un hotel situado a 100 metros del Museo Nacional de Artes Visuales justo al lado del Castillo del Parque Rodó. La Casa Central del Banco República está aproximadamente a 150 metros de aquí.,3490512,5616975,Espacio cerrado,Mayores,Grupo,544,Hostel,1,1,1,1,0,0,0,0,1,0,0,99304892
Charrúas Hostel,Montevideo,Montevideo,Colonia 2063,00:00:00,00:00:00,,https://www.instagram.com/charruahostel/?hl=es,,Hostal tranquilo con dormitorios sencillos bar y jardín con utensilios para barbacoa.,3489941,5616757,Espacio cerrado,Mayores,Grupo,222,Hostel,1,1,1,1,0,0,0,0,1,0,0,99822805
Montevideo Chic Hostel,Montevideo,Montevideo,Piedras 597,00:00:00,00:00:00,https://es-la.facebook.com/MontevideoChicHostel/,,https://montevideohostel.com/,El Montevideo Chic Hostel está situado a 100 metros de la zona financiera de Montevideo y ofrece conexión Wi-Fi gratuita y zona de barbacoa. Se encuentra en el centro junto a museos y teatros y a 5 minutos a pie de la Rambla. Las habitaciones del Montevideo Chic Hostel tienen baño compartido. Algunos apartamentos cuentan con baño privado y cocina totalmente equipada.,3478896,5620128,Espacio cerrado,Mayores,Grupo,1000,Hostel,1,1,1,1,0,0,0,0,1,0,0,93925171
