Nombre,Departamento,Ciudad,Direccion,HoraDeApertura,HoraDeCierre,Facebook,Instagram,Web,Descripcion,Imagen,Latitud,Longitud,TipoDeLugar,RestriccionDeEdad,EnfoqueDePersonas,Megusta,puntosinteres_id,Tipo,Telefonos
Hospital Maciel,Montevideo,Montevideo,Hospital Maciel 25 de Mayo 174 11000 Montevideo Departamento de Montevideo,0:00:00,23:59:59,,,https://www.asse.com.uy/contenido/Hospital-Maciel-5212,• Se requiere una cita • Limitadas a ciertos pacientes • Se recomienda traer tapabocas,https://lh5.googleusercontent.com/p/AF1QipNhGWoKlO448hAFyeVHRtqEPInhrX8teg5ggeSH=w687-h240-k-no,3490833,5628194,Espacio cerrado,Todas,Grupo,10,,Hospitales,29153000
Hospital Pasteur,Montevideo,Montevideo,4VF6+XJ9 José Antonio Cabrera 11400 Montevideo Departamento de Montevideo,0:00:00,23:59:59,,,https://www.asse.com.uy/contenido/Hospital-Pasteur-5213,• Se recomienda traer tapabocas,https://lh5.googleusercontent.com/p/AF1QipM5HNzXl78jtKlbHXP_fJ3igHRB3iJT0W4ya3KJ=w408-h306-k-no,3483761,5621863,Espacio cerrado,Todas,Grupo,10,,Hospitales,25088131
Hospital Español,Montevideo,Montevideo,Av. Gral. José Garibaldi 1729 11800 Montevideo Departamento de Montevideo,0:00:00,23:59:59,,,http://www.hospitalespanol.com.uy/portal/servlet/com.portal.kad.inicio,• Se recomienda traer tapabocas,https://lh5.googleusercontent.com/p/AF1QipM5sy4Ge4xBIZfL6ZHEC9HNFy6Lr6lbomV8CvSN=w408-h506-k-no,3483761,5621863,Espacio cerrado,Todas,Grupo,10,,Hospitales,22097899
Hospital Universitario | UDELAR,Montevideo,Montevideo,Av. Italia S 11600 N Departamento de Montevideo,0:00:00,23:59:59,,,https://www.hc.edu.uy/,• Se recomienda traer tapabocas,https://lh5.googleusercontent.com/p/AF1QipMsEW0WLIZKsQp2La64CMVjSpUfAY05CVAtUl4W=w408-h408-k-no,3489057,5622206,Espacio cerrado,Todas,Grupo,10,,Hospitales,24871515
Hospital Italiano de Montevideo,Montevideo,Montevideo,consultorio 15 Bv. Gral. Artigas 1632 11600 Montevideo Departamento de Montevideo,0:00:00,23:59:59,,,https://sociedadmedicauniversal.com/sucursales/,• Se recomienda traer tapabocas,https://lh5.googleusercontent.com/p/AF1QipMw_6SiCaBsYrUI4gHH2BzCM6kiyM7GdBoqwJJO=w408-h544-k-no,3489057,5622206,Espacio cerrado,Todas,Grupo,10,,Hospitales,24866050
Sanatorio Americano,Montevideo,Montevideo,Dr. Isabelino Bosch 2466 11600 Montevideo Departamento de Montevideo,0:00:00,23:59:59,,,https://www.americano.com.uy/,• Se recomienda traer tapabocas,https://lh5.googleusercontent.com/p/AF1QipMmg4gSmlnzCig_jPm2YCzZL4n7QxKeWoEeIJ0A=w408-h306-k-no,3489057,5622206,Espacio cerrado,Todas,Grupo,10,,Hospitales,27086041
Mutualista Hospital Evangélico,Montevideo,Montevideo,4V93+J7H Mateo Vidal 11600 Montevideo Departamento de Montevideo,0:00:00,23:59:59,https://www.facebook.com/MutualistaHospitalEvangelico/?locale=es_LA,https://www.instagram.com/mutualistahospitalevangelico/?hl=es,https://www.hospitalevangelico.com.uy/,• Se recomienda traer tapabocas,https://lh5.googleusercontent.com/p/AF1QipOFGUBrvkJAQ-RMXMfCJGT-ewKrInv3qJ7IRa-_=w426-h240-k-no,3489057,5622206,Espacio cerrado,Todas,Grupo,10,,Hospitales,24872319
Hospital Catolico,Montevideo,Montevideo,4R6P+H4Q 11600 Montevideo Departamento de Montevideo,0:00:00,23:59:59,https://www.facebook.com/mutualistacirculocatolico/,,https://www.circulocatolico.com.uy/,• Se recomienda traer tapabocas,https://streetviewpixels-pa.googleapis.com/v1/thumbnail?panoid=O79mLVstKQ15dJFAGJgrhQ&cb_client=search.gws-prod.gps&w=408&h=240&yaw=133.26682&pitch=0&thumbfov=100,3490833,5628194,Espacio cerrado,Todas,Grupo,10,,Hospitales,22091073
Hospital Vilardebó,Montevideo,Montevideo,Av. Millán 2515 11800 Montevideo Departamento de Montevideo,0:00:00,23:59:59,,,https://www.asse.com.uy/contenido/Hospital-Vilardebo-5227,• Se recomienda traer tapabocas,https://lh5.googleusercontent.com/p/AF1QipOUEr9ZGJB5uwKQ726o9eIqQppbLCEFccXk9PS4=w408-h306-k-no,3490833,5628194,Espacio cerrado,Todas,Grupo,10,,Hospitales,
Unidad de Internación del Crenadecer. Ex Sanatorio Canzani,Montevideo,Montevideo,C. Martín García 1363 11800 Montevideo Departamento de Montevideo,0:00:00,23:59:59,,,https://nicelocal.uy/montevideo/medical/unidad_de_internacion_del_crenadecer_ex_sanatorio_canzani/,• Se recomienda traer tapabocas,https://lh5.googleusercontent.com/p/AF1QipPcSKxoXi4SAfXjcn9VuzLmbbD3-KR1Kd-vq5db=w408-h408-k-no,3490833,5628194,Espacio cerrado,Todas,Grupo,10,,Hospitales,22080121
Sanatorio Etchepare,Montevideo,Montevideo,Bv. Gral. Artigas 4000 11800 Montevideo Departamento de Montevideo,0:00:00,23:59:59,,,https://uy.todosnegocios.com/sanatorio-etchepare-2209-9237,• Se recomienda traer tapabocas,https://lh5.googleusercontent.com/p/AF1QipPQkyvgfzyLZQClHwKU8nkJxtnkiqW9L_NuZZ5o=w426-h240-k-no,3490833,5628194,Espacio cerrado,Todas,Grupo,10,,Hospitales,22099237
Policlínica Hospital Evangélico,Montevideo,Montevideo,Av. Carlos María Ramírez 420 11900 Montevideo Departamento de Montevideo,0:00:00,23:59:59,https://www.hospitalevangelico.com.uy/,3485991,5629878,• Se recomienda traer tapabocas,https://lh5.googleusercontent.com/p/AF1QipOQ_gT_hAsGIbXrrex9I17wzh4DRPbs8QoBzXVy=w426-h240-k-no,3485991,5629878,Espacio cerrado,Todas,Grupo,10,,Hospitales,23048305
Centro Hospitalario Pereira Rossell,Montevideo,Montevideo,Bulevar Artigas 1590 Lord Ponsoby 2410 11600 Montevideo,0:00:00,23:59:59,,,http://www.pereirarossell.gub.uy/#!/-bienvenido/,• Se recomienda traer tapabocas,http://www.pereirarossell.gub.uy/#!/-bienvenido/,3489880,5616645,Espacio cerrado,Todas,Grupo,10,,Hospitales,27087741
Centro Hospitalario del Norte Gustavo Saint-Bois,Montevideo,Montevideo,Cno. Fauquet 6358 12500 Montevideo Departamento de Montevideo,0:00:00,23:59:59,,,https://www.asse.com.uy/contenido/Hospital-General-Gustavo-Saint-Bois--5215,• Se recomienda traer tapabocas,https://lh5.googleusercontent.com/p/AF1QipN8vY1mQ2g3zn7jbwUWqETNZ6smZwbcg6BnT_Fi=w408-h545-k-no,3478828,5624331,Espacio cerrado,Todas,Grupo,10,,Hospitales,23228080
Vilardebó,Montevideo,Montevideo,11800 Montevideo Departamento de Montevideo,0:00:00,23:59:59,,,,• Se recomienda traer tapabocas,,3487787,5618361,Espacio cerrado,Todas,Grupo,10,,Hospitales,0
Dirección Nacional de Sanidad de las Fuerzas Armadas,Montevideo,Montevideo,Av. 8 de Octubre 3020 11600 Montevideo Departamento de Montevideo,0:00:00,23:59:59,,,http://www.dnsffaa.gub.uy/,• Se recomienda traer tapabocas,http://www.dnsffaa.gub.uy/,3488366,5615742,Espacio cerrado,Todas,Grupo,10,,Hospitales,24876666
Dirección Nacional de la Sanidad Policial - Hospital Policial,Montevideo,Montevideo,Bv. José Batlle y Ordóñez 3574 11800 Montevideo Departamento de Montevideo,0:00:00,23:59:59,,,https://sanidad.minterior.gub.uy/,• Se recomienda traer tapabocas,https://lh5.googleusercontent.com/p/AF1QipOWRhMeHWuIodPH-OnY0I2mex7LD7kPESlRV8ds=w408-h306-k-no,3486845,5616333,Espacio cerrado,Todas,Grupo,10,,Hospitales,20301000
D.N.AA.SS,Montevideo,Montevideo,Bv. José Batlle y Ordóñez 3574 11600 Montevideo Departamento de Montevideo,0:00:00,23:59:59,,,https://www.dnsffaa.gub.uy/,• Se recomienda traer tapabocas,https://streetviewpixels-pa.googleapis.com/v1/thumbnail?panoid=Xquw6l2leHAX_XT0kpYlTw&cb_client=search.gws-prod.gps&w=408&h=240&yaw=222.37218&pitch=0&thumbfov=100,3486724,5623392,Espacio cerrado,Todas,Grupo,10,,Hospitales,0
Sanatorio Maternidad CASMU IAMPP,Montevideo,Montevideo,Av. Gral. Garibaldi 2644 11600 Montevideo Departamento de Montevideo,0:00:00,23:59:59,,,http://casmu.com.uy/,• Se recomienda traer tapabocas,https://lh5.googleusercontent.com/p/AF1QipOdgLvuElJw7oKRZLRot7A6g4g4xE7_kJ5hNnyz=w408-h295-k-no,3486724,5623392,Espacio cerrado,Todas,Grupo,10,,Hospitales,24872125
Hospital Británico de Montevideo,Montevideo,Montevideo,Av. Italia 2420 11600 Montevideo Departamento de Montevideo,0:00:00,23:59:59,https://www.facebook.com/hospitalbritanicouruguay/,,http://www.hospitalbritanico.com.uy/,• Se recomienda traer tapabocas,https://lh5.googleusercontent.com/p/AF1QipNKbevRdMYsrPiJ7Dn_mVjCQRlIU64law43ZURi=w408-h300-k-no,3486724,5623392,Espacio cerrado,Todas,Grupo,10,,Hospitales,24871020
Farmacia Machado,Montevideo,Montevideo,Bv. Gral. Artigas 2947 11800 Montevideo Departamento de Montevideo,0:00:00,23:59:59,https://www.facebook.com/FarmaciaMachado/?locale=es_LA,,https://uy.todosnegocios.com/farmacia-machado-2203-5308,Medicamentos disponibles,Medicamentos disponibles,3486722,5623392,Espacio cerrado,Todas,Grupo,10,,Farmacias,22035308
Farmacia Larrañaga,Montevideo,Montevideo,Av. Luis Alberto de Herrera 3149 11600 Montevideo Departamento de Montevideo,0:00:00,23:59:59,,,https://uy.latinoplaces.com/montevideo/farmacia-larranaga-668581,Medicamentos disponibles,https://streetviewpixels-pa.googleapis.com/v1/thumbnail?panoid=oE-SsCGdn6_xid_8xIulQA&cb_client=search.gws-prod.gps&w=408&h=240&yaw=225.43521&pitch=0&thumbfov=100,3486722,5623392,Espacio cerrado,Todas,Grupo,10,,Farmacias,24817976
Farmacia Zeus,Montevideo,Montevideo,Av. Gral. Flores 2654 11800 Montevideo Departamento de Montevideo,0:00:00,23:59:59,,,https://www.planetauruguay.com/farmacia-zeus-montevideo-F1608C707,Medicamentos disponibles,https://www.planetauruguay.com/farmacia-zeus-montevideo-F1608C707,3486722,5623392,Espacio cerrado,Todas,Grupo,10,,Farmacias,0
Farmacia Jardin,Montevideo,Montevideo,Bvar. José Batlle y Ordóñez 3449 11600 Montevideo Departamento de Montevideo,0:00:00,23:59:59,,,https://uy.todosnegocios.com/farmacia-jardin-2487-0940,Medicamentos disponibles,https://uy.todosnegocios.com/farmacia-jardin-2487-0940,3486722,5623392,Espacio cerrado,Todas,Grupo,10,,Farmacias,24870940
Farmacia Arapey,Montevideo,Montevideo,Av. Gral. Flores 3143 11700 Montevideo Departamento de Montevideo,0:00:00,23:59:59,,,http://www.farmaciasarapey.com/,Medicamentos disponibles,https://lh5.googleusercontent.com/p/AF1QipMszEIqTxfAJ_ZCTkN2rVoDiqFk0e9Q0XpAwdAn=w408-h306-k-no,3486722,5623392,Espacio cerrado,Todas,Grupo,10,,Farmacias,22098556
Farmacia Pigalle suc. 8 de Octubre,Montevideo,Montevideo,Avda. 8 de Octubre 2547 Pdte. Berro esq 11600 Montevideo Departamento de Montevideo,0:00:00,23:59:59,,,http://www.pigalle.com.uy/,Medicamentos disponibles,https://lh5.googleusercontent.com/p/AF1QipOQTmchYD7weCKyYtZ2TZNR8q51SAEgLh9QpKqW=w408-h306-k-no,3486722,5623392,Espacio cerrado,Todas,Grupo,10,,Farmacias,24034030
Farmacia,Montevideo,Montevideo,4RMH+CHX Avenida Gral. Flores 11600 Montevideo Departamento de Montevideo,0:00:00,23:59:59,,,,Medicamentos disponibles,https://streetviewpixels-pa.googleapis.com/v1/thumbnail?panoid=YBnNNjXFCD1dVZfiQPYN1w&cb_client=search.gws-prod.gps&w=408&h=240&yaw=149.5261&pitch=0&thumbfov=100,3486722,5623392,Espacio cerrado,Todas,Grupo,10,,Farmacias,0
Farmacia Seneca,Montevideo,Montevideo,Av. Gral. José Garibaldi 2503 11600 Montevideo Departamento de Montevideo,0:00:00,23:59:59,,,https://uy.todosnegocios.com/farmacia-seneca-2487-7389,Medicamentos disponibles,https://uy.todosnegocios.com/farmacia-seneca-2487-7389,3488560,5623453,Espacio cerrado,Todas,Grupo,10,,Farmacias,24877389
Farmacia Machado 2,Montevideo,Montevideo,Bv. Gral. Artigas 1999 11800 Montevideo Departamento de Montevideo,0:00:00,23:59:59,https://www.facebook.com/FarmaciaMachado/?locale=es_LA,,https://www.guias.com.uy/empresa/farmacia-machado-2-tres-cruces-montevideo,Medicamentos disponibles,https://lh5.googleusercontent.com/p/AF1QipOrOAiN5Ix0IHAnYKBWSGkhkG3vctqZL3HbxUCH=w408-h244-k-no,3488560,562345,Espacio cerrado,Todas,Grupo,10,,Farmacias,24013525
Farmacia Corominas,Montevideo,Montevideo,Av. 8 de Octubre 2689 11600 Montevideo Departamento de Montevideo,0:00:00,23:59:59,,,https://www.planetauruguay.com/farmacia-corominas-montevideo-F1B0FC000,Medicamentos disponibles,https://streetviewpixels-pa.googleapis.com/v1/thumbnail?panoid=J7-Nry217NVYOvANj3aM2A&cb_client=search.gws-prod.gps&w=408&h=240&yaw=335.12494&pitch=0&thumbfov=100,3488560,562345,Espacio cerrado,Todas,Grupo,10,,Farmacias,24800017
Farmacia Pose,Montevideo,Montevideo,Av. Gral. San Martín 3680 12300 Montevideo Departamento de Montevideo,0:00:00,23:59:59,https://www.facebook.com/farmaciapose/,,https://uy.todosnegocios.com/farmacia-pose-2216-1033,Medicamentos disponibles,https://lh5.googleusercontent.com/p/AF1QipOOOI6TjExN9lMyAcEX3PtixOizVls_fJOadbsj=w408-h306-k-no,3488560,5623453,Espacio cerrado,Todas,Grupo,10,,Farmacias,22161033
Farmacia Gilda,Montevideo,Montevideo,Av. Millán 2744 11800 Montevideo Departamento de Montevideo,0:00:00,23:59:59,,,https://uy.todosnegocios.com/farmacia-gilda-2203-4901,Medicamentos disponibles,https://lh5.googleusercontent.com/p/AF1QipOy-kV1AAq8J-qcqAd4aJvRENVdulN9HUyTm_hi=w408-h725-k-no,3488560,5623453,Espacio cerrado,Todas,Grupo,10,,Farmacias,22034901
FARMACIA EL CAIRO,Montevideo,Montevideo,Pres. Ing. José Serrato 3450 12000 Montevideo Departamento de Montevideo,0:00:00,23:59:59,,,https://uy.eldirectorio.co/empresas/montevideo/farmacia-el-cairo/farmacia-el-cairo-14980,Medicamentos disponibles,https://lh5.googleusercontent.com/p/AF1QipMaSWN_jGqx_rnmeOBl1cfICcFiVAllE_mCps9t=w520-h240-k-no,3488560,5623453,Espacio cerrado,Todas,Grupo,10,,Farmacias,22169797
Farmacia Goes,Montevideo,Montevideo,Av. Gral. Flores 2837 11800 Montevideo Departamento de Montevideo,0:00:00,23:59:59,https://www.facebook.com/FarmaciaGoes2837/,https://www.instagram.com/farmacia_goes/?hl=es-la,https://uy.latinoplaces.com/montevideo/farmacia-goes-1132662,Medicamentos disponibles,https://lh5.googleusercontent.com/p/AF1QipMtRW44wsOkwmId3ntmVqIxBFwx0NwgtjbnvfiA=w408-h408-k-no,3488560,5623453,Espacio cerrado,Todas,Grupo,10,,Farmacias,97263195
Farmacia El Túnel,Montevideo,Montevideo,Avelino Miranda 2615 esquina Av. Italia Montevideo Departamento de Montevideo,0:00:00,23:59:59,,,http://www.eltunel.com.uy/,Medicamentos disponibles,https://lh5.googleusercontent.com/p/AF1QipP0GiaFsfbXDPkEhkc7lRUAN12gxLh42c3sK28i=w408-h270-k-no,3488560,5623453,Espacio cerrado,Todas,Grupo,10,,Farmacias,24068096
Farmacia Moderna II,Montevideo,Montevideo,Cufré 1902 11800 Montevideo Departamento de Montevideo,0:00:00,23:59:59,,,https://uy.todosnegocios.com/farmacia-moderna-ii-2401-4787,Medicamentos disponibles,https://lh5.googleusercontent.com/p/AF1QipN1YAUdqmBf6GW4N3FEWHEkJ05yq1XG0tn4X4mr=w408-h306-k-no,3488560,5623453,Espacio cerrado,Todas,Grupo,10,,Farmacias,24014787
Farmacia Milena,Montevideo,Montevideo,Comercio 2440 11400 Montevideo Departamento de Montevideo,0:00:00,23:59:59,,,https://1122.com.uy/local/farmacia-milena/LOC19720001,Medicamentos disponibles,https://lh5.googleusercontent.com/p/AF1QipNMUhYyTKDaMkukkPGkvGHBzcxxbeL9m3HVyXsz=w408-h884-k-no,3483761,5621863,Espacio cerrado,Todas,Grupo,10,,Farmacias,25065090
Farmacia San Antonio Centro,Montevideo,Montevideo,Av. 18 de Julio 841 11100 Montevideo Departamento de Montevideo,0:00:00,23:59:59,,,https://www.paseocentro.com.uy/producto/farmacia-san-antonio/,Medicamentos disponibles,https://lh5.googleusercontent.com/p/AF1QipONnO1osGzW3QTWpp98VxsHQeYrocVVvJsv7DTQ=w408-h272-k-no,3490630,5626846,Espacio cerrado,Todas,Grupo,10,,Farmacias,29000368
Farmacia Tundisi,Montevideo,Montevideo,Av Gral Rondeau 1404 11100 Montevideo Departamento de Montevideo,0:00:00,23:59:59,,https://www.instagram.com/farmaciatundisiobelisco/?hl=es,https://1122.com.uy/local/farmacia-tundisi/LOC528360001,Medicamentos disponibles,https://lh5.googleusercontent.com/p/AF1QipM578DmHVW6r3mNymn4idYS67-KepNm8rL32G0S=w408-h544-k-no,3490630,5626846,Espacio cerrado,Todas,Grupo,10,,Farmacias,29007967
Farmacia Burgues,Montevideo,Montevideo,Av. Burgues 3301 11700 Montevideo Departamento de Montevideo,0:00:00,23:59:59,,,https://uy.todosnegocios.com/farmacia-burgues-2200-0400,Medicamentos disponibles,https://streetviewpixels-pa.googleapis.com/v1/thumbnail?panoid=c9As8JcmFJTmuQ8ieUQ8aA&cb_client=search.gws-prod.gps&w=408&h=240&yaw=311.9669&pitch=0&thumbfov=100,3490630,5626846,Espacio cerrado,Todas,Grupo,10,,Farmacias,22000400
Estación Servicio Petrobras,Montevideo,Montevideo,Gral. Pagola 2340 11800 Montevideo Departamento de Montevideo,0:00:00,23:59:59,,,http://www.petrobras.com.uy/,Nafta y viveres,https://lh5.googleusercontent.com/p/AF1QipNupkAlwgQ_FJOCSMGs9i2qsd7Nmrq-9viGdILR=w426-h240-k-no,3490629,5626846,Ambas,Todas,Grupo,10,,Estaciones de Servicio,24092525
ANCAP Estación de servicio NICRE,Montevideo,Montevideo,Dr. Fernández Crespo 2197 y Nicaragua 11800 Montevideo Departamento de Montevideo,0:00:00,23:59:59,,,http://www.portalnautico.com.uy/EstacionANCAP_NICRE_FernandezCrespo_Nicaragua.htm,Nafta y viveres,https://lh5.googleusercontent.com/p/AF1QipMBMiPTyMB8qyKcdK2nqvcDlM_s1KKuFxsvP01S=w426-h240-k-no,3490629,5626846,Ambas,Todas,Grupo,10,,Estaciones de Servicio,29242625
Estacion de servicio,Montevideo,Montevideo,Cno. Carrasco 4680 12100 Montevideo Departamento de Montevideo,0:00:00,23:59:59,,,https://www.transportecarretero.com.uy/estaciones-de-servicio.html,Nafta y viveres,https://www.transportecarretero.com.uy/estaciones-de-servicio.html,3487114,5618610,Ambas,Todas,Grupo,10,,Estaciones de Servicio,25255762
Estación de servicio Ancap,Montevideo,Montevideo,C. Martín García 1656 11800 Montevideo Departamento de Montevideo,0:00:00,23:59:59,,,https://www.ancap.com.uy/,Nafta y viveres,https://www.ancap.com.uy/,3488694,5625495,Ambas,Todas,Grupo,10,,Estaciones de Servicio,0
Estación de Servicio Axion,Montevideo,Montevideo,Av. Gral. Eugenio Garzón 425 12900 Montevideo Departamento de Montevideo,0:00:00,23:59:59,,,https://www.axionenergy.com/Paginas/index.aspx,Nafta y viveres,https://lh5.googleusercontent.com/p/AF1QipO3T1moY_qfWxJOzpDu6ZkZ1j7UVWq069EKD_zO=w408-h306-k-no,3484660,5629284,Ambas,Todas,Grupo,10,,Estaciones de Servicio,23061066
Estación Servicio Petrobras,Montevideo,Montevideo,Gral. Pagola 2340 11800 Montevideo Departamento de Montevideo,0:00:00,23:59:59,,,http://www.petrobras.com.uy/,Nafta y viveres,http://www.petrobras.com.uy/,3487114,5618610,Ambas,Todas,Grupo,10,,Estaciones de Servicio,24092525
ANCAP Marne ltda Venta de Garrafas,Montevideo,Montevideo,Bv. José Batlle y Ordóñez 3855 11600 Montevideo Departamento de Montevideo,0:00:00,23:59:59,,,http://marneltda.vitrinevirtual.net/,Nafta y viveres,https://lh5.googleusercontent.com/p/AF1QipPpODkoLbbgMr3HaYYta-advtID9mOhw7kB3aHa=w408-h306-k-no,3487114,5618610,Ambas,Todas,Grupo,10,,Estaciones de Servicio,24816104
AXION,Montevideo,Montevideo,12100 Montevideo Departamento de Montevideo,0:00:00,23:59:59,,,https://www.axionenergy.com/Paginas/index.aspx,Nafta y viveres,https://lh5.googleusercontent.com/p/AF1QipMGMQeB6rPnLRY_zfpmo_-BG1_Aw6bIv4fDBqPK=w426-h240-k-no,3487114,5618610,Ambas,Todas,Grupo,10,,Estaciones de Servicio,25148340
Axion Energy,Montevideo,Montevideo,Axion Energy,0:00:00,23:59:59,,,https://www.axionenergy.com/Paginas/index.aspx,Nafta y viveres,https://www.axionenergy.com/Paginas/index.aspx,3487114,5618610,Ambas,Todas,Grupo,10,,Estaciones de Servicio,22152120
AXION Delmar SRL Estación de servicio,Montevideo,Montevideo,Cambay 2504 12100 Montevideo Departamento de Montevideo,0:00:00,23:59:59,,,https://uy.latinoplaces.com/montevideo/axion-delmar-srl-estacion-1336534,Nafta y viveres,https://lh5.googleusercontent.com/p/AF1QipMkWd8jn7amlN_vkuzF_U7xD9amhk3p-Jd0W4dk=w426-h240-k-no,3487114,5618610,Ambas,Todas,Grupo,10,,Estaciones de Servicio,25251384
DISA,Montevideo,Montevideo,Bv. José Batlle y Ordóñez 5500 12900 Montevideo Departamento de Montevideo,0:00:00,23:59:59,,,Bv. José Batlle y Ordóñez 5500, 12900 Montevideo, Departamento de Montevideo,Nafta y viveres,https://lh5.googleusercontent.com/p/AF1QipPj2_8lnnvfJKK4p9PIe3tIGiO38fiPyCmndA-S=w408-h305-k-no,3483855,5627076,Ambas,Todas,Grupo,10,,Estaciones de Servicio,23595249
ANCAP,Montevideo,Montevideo,Cd Vieja 11000 Montevideo Departamento de Montevideo,0:00:00,23:59:59,,,http://www.ducsa.com.uy/estaciones,Nafta y viveres,https://lh5.googleusercontent.com/p/AF1QipNraIVFBlfQBZIFxgj9VJTsw2DD6Gl4ldDPTJAS=w426-h240-k-no,3491027,5627087,Ambas,Todas,Grupo,10,,Estaciones de Servicio,29158604
Ancap Servicentro Danalin,Montevideo,Montevideo,Av. Italia 2905 y Brito Foresti 11600 Montevideo Departamento de Montevideo,0:00:00,23:59:59,,,http://www.ducsa.com.uy/estaciones,Nafta y viveres,http://www.ducsa.com.uy/estaciones,3491027,5627087,Ambas,Todas,Grupo,10,,Estaciones de Servicio,24877131
Axion Estación de Servicio,Montevideo,Montevideo,4RR3+V8G 11700 Montevideo Departamento de Montevideo,0:00:00,23:59:59,,,https://www.transportecarretero.com.uy/estaciones-de-servicio/esso-montevideo-montevideo-13.html,Nafta y viveres,https://lh5.googleusercontent.com/p/AF1QipNCPzh-1cGCM-TkUkxgUN0dXFOW-Zzhiq_zX-j-=w408-h306-k-no,3485781,5626671,Ambas,Todas,Grupo,10,,Estaciones de Servicio,0
Estación de Servicio AXION,Montevideo,Montevideo,4QWG+RJ7 San Quintín 11900 Montevideo Departamento de Montevideo,0:00:00,23:59:59,,,https://www.axionenergy.com/Paginas/index.aspx,Nafta y viveres,https://lh5.googleusercontent.com/p/AF1QipPfKxwgBzFYroFjStY9i02cWCoE4aoOUCRJ4iLk=w408-h306-k-no,3485781,5626671,Ambas,Todas,Grupo,10,,Estaciones de Servicio,23055305
ANCAP,Montevideo,Montevideo,Joanicó 3615 11400 Montevideo Departamento de Montevideo,0:00:00,23:59:59,,,http://www.ducsa.com.uy/estaciones,Nafta y viveres,https://lh5.googleusercontent.com/p/AF1QipP_TcE8_U1J4ardx7FemXJ9DwidPnbNF-0Eeuw=w513-h240-k-no,3485781,5626671,Ambas,Todas,Grupo,10,,Estaciones de Servicio,25089234
Estacion de servicio,Montevideo,Montevideo,Uruguayana 3524 11700 Montevideo Departamento de Montevideo,0:00:00,23:59:59,,,https://www.transportecarretero.com.uy/estaciones-de-servicio.html,Nafta y viveres,https://streetviewpixels-pa.googleapis.com/v1/thumbnail?panoid=YHj45C_tUlpRUW53xBS9CQ&cb_client=search.gws-prod.gps&w=408&h=240&yaw=217.36336&pitch=0&thumbfov=100,3485781,5626671,Ambas,Todas,Grupo,10,,Estaciones de Servicio,0
ANCAP Prado,Montevideo,Montevideo,Avda. Millán 3771 Av. Joaquín Suárez y 11700 Montevideo,0:00:00,23:59:59,,,http://www.ducsa.com.uy/estaciones,Nafta y viveres,https://lh5.googleusercontent.com/p/AF1QipOkFFYJJYmQkiqKTC9_BJ8OVrOEVnDz8GiHHDCo=w408-h725-k-no,3485781,5626671,Ambas,Todas,Grupo,10,,Estaciones de Servicio,23362197
Ancap,Montevideo,Montevideo,Av. Luis Alberto de Herrera 1356 11300 Montevideo Departamento de Montevideo,0:00:00,23:59:59,,,http://www.ducsa.com.uy/estaciones,Nafta y viveres,https://lh5.googleusercontent.com/p/AF1QipP4mZx1ErKnw_7rRpV6LIMXJOhA4L2cHcuQsbKw=w426-h240-k-no,3485781,5626671,Ambas,Todas,Grupo,10,,Estaciones de Servicio,26285868
ANCAP,Montevideo,Montevideo,Pres. Ing. José Serrato 3250 12000 Montevideo Departamento de Montevideo,0:00:00,23:59:59,,,http://www.ducsa.com.uy/estaciones,Nafta y viveres,https://lh5.googleusercontent.com/p/AF1QipORtTRkKNDtIr24hW3LF71_SWg9EZmqP1Qm2NZe=w426-h240-k-no,3483761,5621863,Ambas,Todas,Grupo,10,,Estaciones de Servicio,25083927
Seccional N° 13 Policia de Montevideo,Montevideo,Montevideo,Bv. Gral. Artigas 3145 11600 Montevideo Departamento de Montevideo,0:00:00,23:59:59,,,http://www.minterior.gub.uy/,Seccional oficial,https://lh5.googleusercontent.com/p/AF1QipOZEVh_S_xjy8YtrfYLF_BiAnxdqbFePnW5p2_s=w426-h240-k-no,3486986,5620663,Espacio cerrado,Todas,Grupo,10,,Seccionales,22036085
Seccional N° 19 Policia de Montevideo,Montevideo,Montevideo,Av. Carlos María Ramírez 181 11900 Montevideo Departamento de Montevideo,0:00:00,23:59:59,,,https://policia.minterior.gub.uy/index.php/transparencia-jpm/seccionales-jpm,Seccional oficial,https://lh5.googleusercontent.com/p/AF1QipOAvSw6LUEszAHkjdgadaVpRNFIzdOpAQVOP8JB=w426-h240-k-no,3485698,5625964,Espacio cerrado,Todas,Grupo,10,,Seccionales,20302319
Seccional N° 4 Policía de Montevideo,Montevideo,Montevideo,C. Miguelete 1973 11800 Montevideo Departamento de Montevideo,0:00:00,23:59:59,,,https://policia.minterior.gub.uy/,Seccional oficial,https://lh5.googleusercontent.com/p/AF1QipOzMqqqdunH5mkkBFwjWNi9RlBoH4URuiAAKFNA=w426-h240-k-no,3489319,5621203,Espacio cerrado,Todas,Grupo,10,,Seccionales,24083687
Seccional N° 9 Policía,Montevideo,Montevideo,casi Garibaldi Luis Sambucetti 2687 11600 Montevideo,0:00:00,23:59:59,,,https://policia.minterior.gub.uy/,Seccional oficial,https://lh5.googleusercontent.com/p/AF1QipPIWz53JtnvpUHw2nhmrg8ScG4jwNUCwUbpGeca=w426-h240-k-no,3489319,5621203,Espacio cerrado,Todas,Grupo,10,,Seccionales,20302523
Seccional N° 3 Policía,Montevideo,Montevideo,Paysandú 1230 11100 Montevideo Departamento de Montevideo,0:00:00,23:59:59,,,https://www.minterior.gub.uy/,Seccional oficial,https://streetviewpixels-pa.googleapis.com/v1/thumbnail?panoid=G4SF96h-3S7PmCSyrnCmYA&cb_client=search.gws-prod.gps&w=408&h=240&yaw=176.82628&pitch=0&thumbfov=100,3489319,5621203,Espacio cerrado,Todas,Grupo,10,,Seccionales,20302303
Seccional N° 17 Policía de Montevideo,Montevideo,Montevideo,5R7G+FV8 Blvr. Aparicio Saravia 12300 Montevideo Departamento de Montevideo,0:00:00,23:59:59,,,https://policia.minterior.gub.uy/,Seccional oficial,https://lh5.googleusercontent.com/p/AF1QipNJ0nC4KEnV4h-v_jhEmSqkxQMrkIgInG5q0vvE=w408-h725-k-no,3483634,5620781,Espacio cerrado,Todas,Grupo,10,,Seccionales,20302317
Seccional N° 7 Policía de Montevideo,Montevideo,Montevideo,Felix Maria Olmedo 3670 11700 Montevideo Departamento de Montevideo,0:00:00,23:59:59,,,https://policia.minterior.gub.uy/index.php/transparencia-jpm/dependencias-de-la-jefatura/division-1?id=1300,Seccional oficial,https://lh5.googleusercontent.com/p/AF1QipPiFPscRK-NrRRstoTfgnrxKf60vqjhUk9XUXPJ=w408-h302-k-no,3486424,5624366,Espacio cerrado,Todas,Grupo,10,,Seccionales,23093306
Seccional 1° de Policia | Jefatura de Policía de Montevideo,Montevideo,Montevideo,25 de Mayo 236 11000 Montevideo Departamento de Montevideo,0:00:00,23:59:59,,,https://policia.minterior.gub.uy/,Seccional oficial,https://lh5.googleusercontent.com/p/AF1QipPpZ4CeBKatbSxA7ewVGmxfVgSio23C65TB6N--=w426-h240-k-no,3490767,5624586,Espacio cerrado,Todas,Grupo,10,,Seccionales,20302301
Seccional N° 6 Policía de Montevideo,Montevideo,Montevideo,Av. Agraciada 2473 11800 Montevideo Departamento de Montevideo,0:00:00,23:59:59,,,http://www.minterior.gub.uy/,Seccional oficial,https://lh5.googleusercontent.com/p/AF1QipMtYJBPF8MAWNwfDxcKSwZ5EH_HVM71hkm6cvg6=w408-h244-k-no,3490767,5624586,Espacio cerrado,Todas,Grupo,10,,Seccionales,20302306
Seccional N° 12,Montevideo,Montevideo,Av. Millán 3946 11700 Montevideo Departamento de Montevideo,0:00:00,23:59:59,,,http://guiaderecursos.mides.gub.uy/72745/seccional-12-montevideo?recursoid=71744,Seccional oficial,https://streetviewpixels-pa.googleapis.com/v1/thumbnail?panoid=VZwQ3YD4NOGQhhZBLvAKsA&cb_client=search.gws-prod.gps&w=408&h=240&yaw=112.93564&pitch=0&thumbfov=100,3485463,5623185,Espacio cerrado,Todas,Grupo,10,,Seccionales,23362145
Seccional N° 15 Policía de Montevideo,Montevideo,Montevideo,Av. 8 de Octubre 3720 11400 Montevideo Departamento de Montevideo,0:00:00,23:59:59,,,https://sitiosdememoria.uy/smlg-uymo-71,Seccional oficial,https://lh5.googleusercontent.com/p/AF1QipNzCftDDjAL3G5guqr_Zz7R6L3DJ__uY2D_aigg=w426-h240-k-no,3487559,5617624,Espacio cerrado,Todas,Grupo,10,,Seccionales,20302315
Seccional N° 14 Policía de Montevideo,Montevideo,Montevideo,Av. Italia 5569 11400 Montevideo Departamento de Montevideo,0:00:00,23:59:59,,,https://policia.minterior.gub.uy/,Seccional oficial,https://lh5.googleusercontent.com/p/AF1QipOfoV9rt3hDwXpausSvcGFE78zgtXEDyYaOkPa2=w408-h254-k-no,3488339,5612623,Espacio cerrado,Todas,Grupo,10,,Seccionales,20302597
Seccional N° 25 Policía de Montevideo,Montevideo,Montevideo,Sin Número esquina Susana Pintos 12100 Montevideo Departamento de Montevideo,0:00:00,23:59:59,,,http://www.minterior.gub.uy/,Seccional oficial,https://streetviewpixels-pa.googleapis.com/v1/thumbnail?panoid=68xtHOvCWC3wE4DbRj8V_A&cb_client=search.gws-prod.gps&w=408&h=240&yaw=190.93974&pitch=0&thumbfov=100,3483721,5615106,Espacio cerrado,Todas,Grupo,10,,Seccionales,20302761
Seccional N° 5 Policía,Montevideo,Montevideo,Joaquín de Salterain 1221 11200 Montevideo Departamento de Montevideo,0:00:00,23:59:59,,,https://policia.minterior.gub.uy/index.php/seccionales-jpm/seccional-5ta,Seccional oficial,https://lh5.googleusercontent.com/p/AF1QipMvvIo_lqzu9Knv445WSCx-9eKc-edEJtcrjIU_=w408-h306-k-no,3490662,5620487,Espacio cerrado,Todas,Grupo,10,,Seccionales,20302305
Seccional N° 24 Policía de Montevideo,Montevideo,Montevideo,C. Prusia 1895 12800 Montevideo Departamento de Montevideo,0:00:00,23:59:59,,,https://policia.minterior.gub.uy/index.php/seccionales-jpm/seccional-24ta,Seccional oficial,https://lh5.googleusercontent.com/p/AF1QipNqr4DiVlCehBWgqIRjhGTGlUZwOyeXzWkW9Jog=w426-h240-k-no,3488740,5628787,Espacio cerrado,Todas,Grupo,10,,Seccionales,23111145
Seccional 18 | Jefatura de Policía de Montevideo,Montevideo,Montevideo,Gianino Castiglioni 7509 12200 Montevideo Departamento de Montevideo,0:00:00,23:59:59,,,http://www.minterior.gub.uy/,Seccional oficial,https://lh5.googleusercontent.com/p/AF1QipNLf7rf_heN38J9Dm1MmCOJklV7KWHEzEUXZ8sY=w408-h306-k-no,3480059,5615690,Espacio cerrado,Todas,Grupo,10,,Seccionales,20302318
Seccional 16 de Policia | Jefatura de Policía de Montevideo,Montevideo,Montevideo,Carreras Nacionales 3407 12000 Montevideo Departamento de Montevideo,0:00:00,23:59:59,,,https://www.minterior.gub.uy/,Seccional oficial,https://streetviewpixels-pa.googleapis.com/v1/thumbnail?panoid=PaHuows6NxmmmwUL0sb52A&cb_client=search.gws-prod.gps&w=408&h=240&yaw=246.40208&pitch=0&thumbfov=100,3486986,5624165,Espacio cerrado,Todas,Grupo,10,,Seccionales,20302630
Seccional N° 21 de Policía de Montevideo,Montevideo,Montevideo,Alberico Passadore 1937 12400 Montevideo Departamento de Montevideo,0:00:00,23:59:59,,,https://policia.minterior.gub.uy/index.php/seccionales-jpm/seccional-21ra,Seccional oficial,https://streetviewpixels-pa.googleapis.com/v1/thumbnail?panoid=5eMl2pc2OPbDG1UzR8ZFaw&cb_client=search.gws-prod.gps&w=408&h=240&yaw=291.37&pitch=0&thumbfov=100,3480469,5629136,Espacio cerrado,Todas,Grupo,10,,Seccionales,23200214
Seccional N° 11 Policía de Montevideo,Montevideo,Montevideo,4V4Q+MJ7 Velsen 11400 Montevideo Departamento de Montevideo,0:00:00,23:59:59,,,http://guiaderecursos.mides.gub.uy/72744/seccional-11-montevideo?recursoid=71744,Seccional oficial,https://lh5.googleusercontent.com/p/AF1QipM0ssjc8rYpD0O58P7kBY4cMBSRe7ItFnGHCOKB=w533-h240-k-no,3489334,5618099,Espacio cerrado,Todas,Grupo,10,,Seccionales,26134541
Comisaría N° 10,Montevideo,Montevideo,3RVX+5W2 Gabriel A. Pereira 11300 Montevideo Departamento de Montevideo,0:00:00,23:59:59,,,https://policia.minterior.gub.uy/index.php,Seccional oficial,https://lh5.googleusercontent.com/p/AF1QipMNOsR0jFPF1Kil3GKIiKH2S14-IFWAGJ2SSTXw=w426-h240-k-no,3489334,5618099,Espacio cerrado,Todas,Grupo,10,,Seccionales,20302310
Cerrajería VTR,Montevideo,Montevideo,Bv. Gral. Artigas 3126 11800 Montevideo Departamento de Montevideo,0:00:00,23:59:59,,,http://vtrcerrajeria.wixsite.com/cerrajeriavtr,Cerrajeria oficial,Cerrajeria oficial,3490917,5625993,Espacio cerrado,Todas,Grupo,10,,Cerrajerias,98423549
CERRAJERIA La Llave MONTEVIDEO,Montevideo,Montevideo,Av. Luis Alberto de Herrera 3661 11700 Montevideo Departamento de Montevideo,0:00:00,23:59:59,,,https://cerrajerialallave-locksmith.negocio.site/,Cerrajeria oficial,https://lh5.googleusercontent.com/p/AF1QipOmRkIhbQ4p1vNLbazz4dNnbdMygAnllgtaAocb=w427-h240-k-no,3490917,5625993,Espacio cerrado,Todas,Grupo,10,,Cerrajerias,98171830
Cerrajeria tres cruces,Montevideo,Montevideo,shopping tres cruces (nivel de estacionamiento -2) 11800 Montevideo Departamento de Montevideo,0:00:00,23:59:59,https://www.facebook.com/cerrajeriatrescruces/,,https://www.trescruces.com.uy/local/cerrajeria/,Cerrajeria oficial,https://lh5.googleusercontent.com/p/AF1QipPO2Rndx7JrrJTLf65vLV8DVszMqHLZFJnl7MY9=w426-h240-k-no,3490917,5625993,Espacio cerrado,Todas,Grupo,10,,Cerrajerias,24024988
Cerrajería La Blanqueada,Montevideo,Montevideo,Av. Luis Alberto de Herrera 2931 11600 Montevideo Departamento de Montevideo,0:00:00,23:59:59,,,https://cerrajeria-la-blanqueada.negocio.site/?utm_source=gmb&utm_medium=referral,Cerrajeria oficial,https://lh5.googleusercontent.com/p/AF1QipOEF8erq-Z_z8iGNdwZKhG7AacljLGfuwAYsGFf=w427-h240-k-no,3487550,5622843,Espacio cerrado,Todas,Grupo,10,,Cerrajerias,24878973
Cerrajeria Jacinto Vera servicio de urgencias,Montevideo,Montevideo,Dr. Martín C. Martínez 3043 11810 Montevideo Departamento de Montevideo,0:00:00,23:59:59,,,https://cerrajeriamontevideo.com/cerrajeros/cerrajeria-en-jacinto-vera/,Cerrajeria oficial,https://lh5.googleusercontent.com/p/AF1QipOX4mKtPcn6wnIt8hbklfCdJ9tzFgbbdy48bm3m=w408-h544-k-no,3487353,5624534,Espacio cerrado,Todas,Grupo,10,,Cerrajerias,96738924
Cerrajería Betel - Automotriz - Residencial - Empresarial,Montevideo,Montevideo,Av. Gral. Rivera 3543 11300 Montevideo Departamento de Montevideo,0:00:00,23:59:59,,,https://nicelocal.uy/montevideo/business/cerrajeria_betel_-_automotriz_-_residencial_-_empresarial_-/,Cerrajeria oficial,https://lh5.googleusercontent.com/p/AF1QipMRCLItA2Epl_2OsaPNIdkQmuoSxS1JkU5qYxgo=w427-h240-k-no,3487353,5624534,Espacio cerrado,Todas,Grupo,10,,Cerrajerias,99171670
Cerrajería VTR,Montevideo,Montevideo,Bv. Gral. Artigas 3126 11800 Montevideo Departamento de Montevideo,0:00:00,23:59:59,,,http://vtrcerrajeria.wixsite.com/cerrajeriavtr,Cerrajeria oficial,https://lh5.googleusercontent.com/p/AF1QipM26cpvg5Slz30FD6jNYxAKr2cN3Wyw0bhHOaAd=w426-h240-k-no,3487353,5624534,Espacio cerrado,Todas,Grupo,10,,Cerrajerias,98423549
Cerrajería S y E,Montevideo,Montevideo,Av. José Belloni 4820 13000 Montevideo Departamento de Montevideo,0:00:00,23:59:59,,,https://uy.todosnegocios.com/cerrajer%C3%ADa-s-y-e-2227-2732,Cerrajeria oficial,https://lh5.googleusercontent.com/p/AF1QipNE6oesEmoqQSYqaHFQmZsUPgbzuQseG53sERVu=w408-h725-k-no,3481625,5620869,Espacio cerrado,Todas,Grupo,10,,Cerrajerias,22272732
Cerrajeria Andes,Montevideo,Montevideo,Andes 1217bis 11100 Montevideo Departamento de Montevideo,0:00:00,23:59:59,,,https://uy.todosnegocios.com/cerrajeria-andes-2903-1217,Cerrajeria oficial,https://lh5.googleusercontent.com/p/AF1QipO4Q-K_jFOg5T415issSFvzJ_MjCUwtB3aUfAg3=w408-h249-k-no,3490881,5626800,Espacio cerrado,Todas,Grupo,10,,Cerrajerias,29031217
Cerrajería Spikerman,Montevideo,Montevideo,Salto 1175 11200 Montevideo Departamento de Montevideo,0:00:00,23:59:59,https://www.facebook.com/people/Cerrajeria-Spikerman/100054345649444/,,https://nicelocal.uy/montevideo/repair/cerrajeria_spikerman/,Cerrajeria oficial,https://lh5.googleusercontent.com/p/AF1QipNDSc6JRtevHTkdAhvACZVs1vzQZkC7pKY4Tuwj=w408-h544-k-no,3490881,5626800,Espacio cerrado,Todas,Grupo,10,,Cerrajerias,99669953
CERRAJERIA PABLO BERTIZ LLAVES CODIFICADAS,Montevideo,Montevideo,Dr. Juan Carlos Dighiero 2508 A 11300 Montevideo Departamento de Montevideo,0:00:00,23:59:59,https://www.facebook.com/CerrajeriaPabloBertiz/,,https://uy.todosnegocios.com/cerrajeria-pablo-bertiz-llaves-094-430-244,Cerrajeria oficial,https://lh5.googleusercontent.com/p/AF1QipO7eA1STBh0nGGfdMLZJ87t3860BrtNmm_lmy6u=w408-h408-k-no,3490881,5626800,Espacio cerrado,Todas,Grupo,10,,Cerrajerias,94430244
Llaves De Autos - Cerrajería Lee,Montevideo,Montevideo,José Ellauri 1334 11300 Montevideo Departamento de Montevideo,0:00:00,23:59:59,,,https://cerrajerialee.com.uy/,Cerrajeria oficial,https://lh5.googleusercontent.com/p/AF1QipNw4KZsDjihaEnwKacmhRLw9DJ4LhmuBEqhujrM=w408-h544-k-no,3490707,5621941,Espacio cerrado,Todas,Grupo,10,,Cerrajerias,94422432
Cerrajería Leo Villa Dolores,Montevideo,Montevideo,Francisco joaquin muñoz 3388 Julio César esquina Montevideo,0:00:00,23:59:59,https://www.facebook.com/profile.php?id=100063781381276,,https://zaubee.com/biz/cerrajer%C3%ADa-leo-villa-dolores-vnpbkigq,Cerrajeria oficial,https://lh5.googleusercontent.com/p/AF1QipPyJPq0i1dxxL87tj4DwiwPLuLoczGYLW9DU1Ci=w427-h240-k-no,3490707,5621941,Espacio cerrado,Todas,Grupo,10,,Cerrajerias,98971279
CERRAJERÍA LA CURVA,Montevideo,Montevideo,SUPERMERCADO DISCO Av. 8 de Octubre 4786 12100 Montevideo Departamento de Montevideo,0:00:00,23:59:59,https://www.facebook.com/profile.php?id=100032092346619,,https://zaubee.com/biz/cerrajer%C3%ADa-la-curva-igwhotpf,Cerrajeria oficial,https://lh5.googleusercontent.com/p/AF1QipOwICv2iOzmr1x0DAyNSUy8br4OxPELGr_BfZRR=w408-h612-k-no,3485717,5620285,Espacio cerrado,Todas,Grupo,10,,Cerrajerias,95686980
Cerrajería Palermo,Montevideo,Montevideo,Av. Gonzalo Ramírez 1878 11200 Montevideo Departamento de Montevideo,0:00:00,23:59:59,,,https://cerrajeriapalermo.uy/,Cerrajeria oficial,https://lh5.googleusercontent.com/p/AF1QipPUY7PUjBNflGC-qJ8-9jfWcpAjFzHr0tK_hvlM=w408-h306-k-no,3491207,5624431,Espacio cerrado,Todas,Grupo,10,,Cerrajerias,94413643
Cerrajeria Cufre,Montevideo,Montevideo,Cufré 2741 11800 Montevideo Departamento de Montevideo,0:00:00,23:59:59,,,https://cerrajeiacufre-com-uy.cms.webnode.es/,Cerrajeria oficial,https://lh5.googleusercontent.com/p/AF1QipO5HzP3492O6ZIZDKzijlCW1FuiqrKcQXRLNBmp=w426-h240-k-no,3491207,5624431,Espacio cerrado,Todas,Grupo,10,,Cerrajerias,94135744
Cerrajeria Parque Posadas,Montevideo,Montevideo,Centro Comercial de Parque Posadas Local 004 al costado de la rampa entrada por costado de tienda inglesa Matias Álvarez 11700 Montevideo,0:00:00,23:59:59,,,https://cerrajeria-parque-posadas.negocio.site/?utm_source=gmb&utm_medium=referral,Cerrajeria oficial,https://lh5.googleusercontent.com/p/AF1QipM5XfZurbR_sFwcR-1ux5BkvSF4QaUzHrnSCMy-=w408-h306-k-no,3485597,5626484,Espacio cerrado,Todas,Grupo,10,,Cerrajerias,99181823
Cerrajeria Dal Monte,Montevideo,Montevideo,Av. Millán 2901 11800 Montevideo Departamento de Montevideo,0:00:00,23:59:59,,,https://cerrajeria-dal-monte.negocio.site/?utm_source=gmb&utm_medium=referral,Cerrajeria oficial,https://lh5.googleusercontent.com/p/AF1QipPJBlYbbMytQEMXaO9yb0GL97ZqwiVqKvEmuf5m=w408-h337-k-no,3485597,5626484,Espacio cerrado,Todas,Grupo,10,,Cerrajerias,94386976
Cerrajeria Migo,Montevideo,Montevideo,JUAN DANIEL JACKSON 1179 11200 Montevideo,0:00:00,23:59:59,https://www.facebook.com/profile.php?id=100064003174812,,https://uy.todosnegocios.com/cerrajeria-migo-091-333-709,Cerrajeria oficial,https://lh5.googleusercontent.com/p/AF1QipNbmt0wGDhK3B9urVs0NkDRqHT-2Xg-fOnQyhyK=w408-h306-k-no,3490791,5624330,Espacio cerrado,Todas,Grupo,10,,Cerrajerias,91333709
CERRAJERIA SENA,Montevideo,Montevideo,Av. Mariscal Francisco Solano López 1889 11400 Montevideo Departamento de Montevideo,0:00:00,23:59:59,,,https://uy.todosnegocios.com/cerrajeria-sena_1n-094-776-569,Cerrajeria oficial,https://lh5.googleusercontent.com/p/AF1QipO6v_uW293puQb4OYALEP5dWQvUr_bRDjPhuTmj=w408-h306-k-no,3490791,5624330,Espacio cerrado,Todas,Grupo,10,,Cerrajerias,94776569
